{"type": "FeatureCollection", "features": [ {"type": "Feature", "properties": {"norad_id": 34634, "name": "COSMOS 2251 DEB", "group": "cosmos-2251-debris", "lat": -34.287317620905284, "lon": 31.00663724931354, "alt_km": 744.3998331399271, "timestamp": "2025-12-08T21:31:05.061289+00:00", "meta": {"OBJECT_NAME": "COSMOS 2251 DEB", "OBJECT_ID": "1993-036XF", "EPOCH": "2025-12-08T14:00:44.018784", "MEAN_MOTION": 14.5564051, "ECCENTRICITY": 0.00443948, "INCLINATION": 74.0528, "RA_OF_ASC_NODE": 42.8408, "ARG_OF_PERICENTER": 151.4452, "MEAN_ANOMALY": 334.5275, "EPHEMERIS_TYPE": 0, "CLASSIFICATION_TYPE": "U", "NORAD_CAT_ID": 34634, "ELEMENT_SET_NO": 999, "REV_AT_EPOCH": 88721, "BSTAR": 0.00062738153, "MEAN_MOTION_DOT": 2.748e-05, "MEAN_MOTION_DDOT": 0}, "tle": {"line1": "1 34634U 93036XF  25342.58384281  .00002748  00000+0  62738-3 0  9995", "line2": "2 34634  74.0528  42.8408 0044394 151.4452 334.5275 14.55640510887216"}}, "geometry": {"type": "Point", "coordinates": [31.00663724931354, -34.287317620905284]}}, {"type": "Feature", "properties": {"norad_id": 34635, "name": "COSMOS 2251 DEB", "group": "cosmos-2251-debris", "lat": 11.283053603269972, "lon": 81.41386540387491, "alt_km": 682.690395480462, "timestamp": "2025-12-08T21:31:05.061299+00:00", "meta": {"OBJECT_NAME": "COSMOS 2251 DEB", "OBJECT_ID": "1993-036XG", "EPOCH": "2025-12-08T13:22:51.816288", "MEAN_MOTION": 14.68172031, "ECCENTRICITY": 0.00289789, "INCLINATION": 74.0457, "RA_OF_ASC_NODE": 78.7967, "ARG_OF_PERICENTER": 148.9149, "MEAN_ANOMALY": 231.9269, "EPHEMERIS_TYPE": 0, "CLASSIFICATION_TYPE": "U", "NORAD_CAT_ID": 34635, "ELEMENT_SET_NO": 999, "REV_AT_EPOCH": 73158, "BSTAR": 0.0019442384, "MEAN_MOTION_DOT": 0.00011246, "MEAN_MOTION_DDOT": 0}, "tle": {"line1": "1 34635U 93036XG  25342.55754417  .00011246  00000+0  19442-2 0  9991", "line2": "2 34635  74.0457  78.7967 0028978 148.9149 231.9269 14.68172031731583"}}, "geometry": {"type": "Point", "coordinates": [81.41386540387491, 11.283053603269972]}}, {"type": "Feature", "properties": {"norad_id": 34637, "name": "COSMOS 2251 DEB", "group": "cosmos-2251-debris", "lat": -42.63685875391663, "lon": 93.21765050861345, "alt_km": 724.5511475895964, "timestamp": "2025-12-08T21:31:05.061309+00:00", "meta": {"OBJECT_NAME": "COSMOS 2251 DEB", "OBJECT_ID": "1993-036XJ", "EPOCH": "2025-12-08T10:31:13.249056", "MEAN_MOTION": 14.60029016, "ECCENTRICITY": 0.00502233, "INCLINATION": 74.0492, "RA_OF_ASC_NODE": 109.3591, "ARG_OF_PERICENTER": 180.8664, "MEAN_ANOMALY": 246.463, "EPHEMERIS_TYPE": 0, "CLASSIFICATION_TYPE": "U", "NORAD_CAT_ID": 34637, "ELEMENT_SET_NO": 999, "REV_AT_EPOCH": 88464, "BSTAR": 0.001585216, "MEAN_MOTION_DOT": 7.726e-05, "MEAN_MOTION_DDOT": 0}, "tle": {"line1": "1 34637U 93036XJ  25342.43834779  .00007726  00000+0  15852-2 0  9999", "line2": "2 34637  74.0492 109.3591 0050223 180.8664 246.4630 14.60029016884648"}}, "geometry": {"type": "Point", "coordinates": [93.21765050861345, -42.63685875391663]}}, {"type": "Feature", "properties": {"norad_id": 34641, "name": "COSMOS 2251 DEB", "group": "cosmos-2251-debris", "lat": 54.079338861298424, "lon": 112.5705715023195, "alt_km": 706.0313596313881, "timestamp": "2025-12-08T21:31:05.061320+00:00", "meta": {"OBJECT_NAME": "COSMOS 2251 DEB", "OBJECT_ID": "1993-036XN", "EPOCH": "2025-12-08T08:18:31.274784", "MEAN_MOTION": 14.51947493, "ECCENTRICITY": 0.00179207, "INCLINATION": 73.839, "RA_OF_ASC_NODE": 90.0233, "ARG_OF_PERICENTER": 6.2701, "MEAN_ANOMALY": 55.3534, "EPHEMERIS_TYPE": 0, "CLASSIFICATION_TYPE": "U", "NORAD_CAT_ID": 34641, "ELEMENT_SET_NO": 999, "REV_AT_EPOCH": 88192, "BSTAR": 0.0014885346, "MEAN_MOTION_DOT": 5.995e-05, "MEAN_MOTION_DDOT": 0}, "tle": {"line1": "1 34641U 93036XN  25342.34619531  .00005995  00000+0  14885-2 0  9992", "line2": "2 34641  73.8390  90.0233 0017920   6.2701  55.3534 14.51947493881922"}}, "geometry": {"type": "Point", "coordinates": [112.5705715023195, 54.079338861298424]}}, {"type": "Feature", "properties": {"norad_id": 34642, "name": "COSMOS 2251 DEB", "group": "cosmos-2251-debris", "lat": 24.887070264183034, "lon": 158.8124406685793, "alt_km": 749.1113011134012, "timestamp": "2025-12-08T21:31:05.061331+00:00", "meta": {"OBJECT_NAME": "COSMOS 2251 DEB", "OBJECT_ID": "1993-036XP", "EPOCH": "2025-12-08T02:12:01.128672", "MEAN_MOTION": 13.98954393, "ECCENTRICITY": 0.0207595, "INCLINATION": 74.0054, "RA_OF_ASC_NODE": 347.8524, "ARG_OF_PERICENTER": 168.7947, "MEAN_ANOMALY": 253.5493, "EPHEMERIS_TYPE": 0, "CLASSIFICATION_TYPE": "U", "NORAD_CAT_ID": 34642, "ELEMENT_SET_NO": 999, "REV_AT_EPOCH": 85228, "BSTAR": 0.0012762902, "MEAN_MOTION_DOT": 2.194e-05, "MEAN_MOTION_DDOT": 0}, "tle": {"line1": "1 34642U 93036XP  25342.09167973  .00002194  00000+0  12763-2 0  9994", "line2": "2 34642  74.0054 347.8524 0207595 168.7947 253.5493 13.98954393852284"}}, "geometry": {"type": "Point", "coordinates": [158.8124406685793, 24.887070264183034]}}, {"type": "Feature", "properties": {"norad_id": 34671, "name": "COSMOS 2251 DEB", "group": "cosmos-2251-debris", "lat": -42.231015976000194, "lon": 126.6441476518648, "alt_km": 678.1543883782415, "timestamp": "2025-12-08T21:31:05.061341+00:00", "meta": {"OBJECT_NAME": "COSMOS 2251 DEB", "OBJECT_ID": "1993-036XR", "EPOCH": "2025-12-08T12:09:33.346944", "MEAN_MOTION": 14.66808924, "ECCENTRICITY": 0.0011776, "INCLINATION": 74.0267, "RA_OF_ASC_NODE": 142.4667, "ARG_OF_PERICENTER": 222.057, "MEAN_ANOMALY": 195.2457, "EPHEMERIS_TYPE": 0, "CLASSIFICATION_TYPE": "U", "NORAD_CAT_ID": 34671, "ELEMENT_SET_NO": 999, "REV_AT_EPOCH": 88235, "BSTAR": 0.0022862903, "MEAN_MOTION_DOT": 0.00012764, "MEAN_MOTION_DDOT": 0}, "tle": {"line1": "1 34671U 93036XR  25342.50663596  .00012764  00000+0  22863-2 0  9990", "line2": "2 34671  74.0267 142.4667 0011776 222.0570 195.2457 14.66808924882356"}}, "geometry": {"type": "Point", "coordinates": [126.6441476518648, -42.231015976000194]}}, {"type": "Feature", "properties": {"norad_id": 34672, "name": "COSMOS 2251 DEB", "group": "cosmos-2251-debris", "lat": -15.716876788461995, "lon": 137.2722652047971, "alt_km": 791.4605797540735, "timestamp": "2025-12-08T21:31:05.061351+00:00", "meta": {"OBJECT_NAME": "COSMOS 2251 DEB", "OBJECT_ID": "1993-036XS", "EPOCH": "2025-12-08T07:33:35.281152", "MEAN_MOTION": 14.36398163, "ECCENTRICITY": 0.00235672, "INCLINATION": 74.0335, "RA_OF_ASC_NODE": 313.7193, "ARG_OF_PERICENTER": 26.7043, "MEAN_ANOMALY": 43.2667, "EPHEMERIS_TYPE": 0, "CLASSIFICATION_TYPE": "U", "NORAD_CAT_ID": 34672, "ELEMENT_SET_NO": 999, "REV_AT_EPOCH": 65114, "BSTAR": 0.00050497184, "MEAN_MOTION_DOT": 1.458e-05, "MEAN_MOTION_DDOT": 0}, "tle": {"line1": "1 34672U 93036XS  25342.31499168  .00001458  00000+0  50497-3 0  9995", "line2": "2 34672  74.0335 313.7193 0023567  26.7043  43.2667 14.36398163651147"}}, "geometry": {"type": "Point", "coordinates": [137.2722652047971, -15.716876788461995]}}, {"type": "Feature", "properties": {"norad_id": 34678, "name": "COSMOS 2251 DEB", "group": "cosmos-2251-debris", "lat": 66.83397731215369, "lon": 150.700592131776, "alt_km": 772.0646723819646, "timestamp": "2025-12-08T21:31:05.061361+00:00", "meta": {"OBJECT_NAME": "COSMOS 2251 DEB", "OBJECT_ID": "1993-036XY", "EPOCH": "2025-12-08T09:19:40.626624", "MEAN_MOTION": 14.30064038, "ECCENTRICITY": 0.00243196, "INCLINATION": 74.0381, "RA_OF_ASC_NODE": 13.6037, "ARG_OF_PERICENTER": 64.1194, "MEAN_ANOMALY": 308.8092, "EPHEMERIS_TYPE": 0, "CLASSIFICATION_TYPE": "U", "NORAD_CAT_ID": 34678, "ELEMENT_SET_NO": 999, "REV_AT_EPOCH": 87317, "BSTAR": 5.8820009e-05, "MEAN_MOTION_DOT": 1.27e-06, "MEAN_MOTION_DDOT": 0}, "tle": {"line1": "1 34678U 93036XY  25342.38866466  .00000127  00000+0  58820-4 0  9998", "line2": "2 34678  74.0381  13.6037 0024319  64.1194 308.8092 14.30064038873172"}}, "geometry": {"type": "Point", "coordinates": [150.700592131776, 66.83397731215369]}}, {"type": "Feature", "properties": {"norad_id": 34680, "name": "COSMOS 2251 DEB", "group": "cosmos-2251-debris", "lat": -31.748950770303136, "lon": 126.99674456563451, "alt_km": 697.4458083899926, "timestamp": "2025-12-08T21:31:05.061372+00:00", "meta": {"OBJECT_NAME": "COSMOS 2251 DEB", "OBJECT_ID": "1993-036YA", "EPOCH": "2025-12-08T12:04:10.484832", "MEAN_MOTION": 14.60547643, "ECCENTRICITY": 0.00069336, "INCLINATION": 74.043, "RA_OF_ASC_NODE": 137.946, "ARG_OF_PERICENTER": 233.7213, "MEAN_ANOMALY": 183.9708, "EPHEMERIS_TYPE": 0, "CLASSIFICATION_TYPE": "U", "NORAD_CAT_ID": 34680, "ELEMENT_SET_NO": 999, "REV_AT_EPOCH": 88266, "BSTAR": 0.0016349913, "MEAN_MOTION_DOT": 7.923e-05, "MEAN_MOTION_DDOT": 0}, "tle": {"line1": "1 34680U 93036YA  25342.50289913  .00007923  00000+0  16350-2 0  9992", "line2": "2 34680  74.0430 137.9460 0006933 233.7213 183.9708 14.60547643882669"}}, "geometry": {"type": "Point", "coordinates": [126.99674456563451, -31.748950770303136]}}, {"type": "Feature", "properties": {"norad_id": 34681, "name": "COSMOS 2251 DEB", "group": "cosmos-2251-debris", "lat": -59.27944969662847, "lon": 146.73268672226348, "alt_km": 633.1534801714251, "timestamp": "2025-12-08T21:31:05.061382+00:00", "meta": {"OBJECT_NAME": "COSMOS 2251 DEB", "OBJECT_ID": "1993-036YB", "EPOCH": "2025-12-08T08:00:48.684384", "MEAN_MOTION": 14.83045006, "ECCENTRICITY": 0.00257048, "INCLINATION": 74.0634, "RA_OF_ASC_NODE": 299.1031, "ARG_OF_PERICENTER": 356.6121, "MEAN_ANOMALY": 124.0599, "EPHEMERIS_TYPE": 0, "CLASSIFICATION_TYPE": "U", "NORAD_CAT_ID": 34681, "ELEMENT_SET_NO": 999, "REV_AT_EPOCH": 89205, "BSTAR": 0.002068167, "MEAN_MOTION_DOT": 0.00016933, "MEAN_MOTION_DDOT": 0}, "tle": {"line1": "1 34681U 93036YB  25342.33389681  .00016933  00000+0  20682-2 0  9991", "line2": "2 34681  74.0634 299.1031 0025704 356.6121 124.0599 14.83045006892050"}}, "geometry": {"type": "Point", "coordinates": [146.73268672226348, -59.27944969662847]}}]}